[{"OBJECT_NAME":"ARCSTONE","OBJECT_ID":"2025-135N","EPOCH":"2026-03-09T21:21:29.017152","MEAN_MOTION":15.28638458,"ECCENTRICITY":0.00041199,"INCLINATION":97.4495,"RA_OF_ASC_NODE":185.9194,"ARG_OF_PERICENTER":166.7863,"MEAN_ANOMALY":193.3485,"EPHEMERIS_TYPE":0,"CLASSIFICATION_TYPE":"U","NORAD_CAT_ID":64540,"ELEMENT_SET_NO":999,"REV_AT_EPOCH":3984,"BSTAR":0.00094899777,"MEAN_MOTION_DOT":0.00026427,"MEAN_MOTION_DDOT":0},{"OBJECT_NAME":"STARLINK-35914","OBJECT_ID":"2025-265S","EPOCH":"2026-03-09T23:09:11.309472","MEAN_MOTION":15.27607114,"ECCENTRICITY":0.00016422,"INCLINATION":43.0037,"RA_OF_ASC_NODE":276.5397,"ARG_OF_PERICENTER":234.5812,"MEAN_ANOMALY":125.4886,"EPHEMERIS_TYPE":0,"CLASSIFICATION_TYPE":"U","NORAD_CAT_ID":66532,"ELEMENT_SET_NO":999,"REV_AT_EPOCH":1715,"BSTAR":0.0011944838,"MEAN_MOTION_DOT":0.00032781,"MEAN_MOTION_DDOT":0}]
